IRIDIUM 144             
1 43249U 18030A   25128.92203085  .00000123  00000+0  36838-4 0  9998
2 43249  86.3931  99.4230 0002395  89.7589 270.3881 14.34217838372211
IRIDIUM 149             
1 43250U 18030B   25128.43999372  .00000291  00000+0  96673-4 0  9996
2 43250  86.3929  99.5962 0002422  89.6021 270.5452 14.34218018372143
IRIDIUM 157             
1 43251U 18030C   25128.94740022  .00000199  00000+0  64164-4 0  9996
2 43251  86.3931  99.4282 0002251  80.7445 279.4006 14.34217406372191
IRIDIUM 140             
1 43252U 18030D   25129.45480825  .00000117  00000+0  34767-4 0  9992
2 43252  86.3931  99.2297 0002341  92.1283 268.0181 14.34217474372321
IRIDIUM 145             
1 43253U 18030E   25129.16304656  .00000093  00000+0  26040-4 0  9996
2 43253  86.3932  99.3245 0002619  92.2089 267.9407 14.34216414372210
IRIDIUM 146             
1 43254U 18030F   25128.93471558  .00000063  00000+0  15457-4 0  9994
2 43254  86.3932  99.4339 0002626  92.6264 267.5232 14.34217985372196
IRIDIUM 148             
1 43255U 18030G   25128.83323540  .00000391  00000+0  13270-3 0  9995
2 43255  86.3932  99.5131 0002523  85.2120 274.9364 14.34218691372219
IRIDIUM 142             
1 43256U 18030H   25128.45268008  .00000154  00000+0  47765-4 0  9995
2 43256  86.3928  99.5760 0002732  91.4193 268.7316 14.34218070372123
